STARLINK-32862          
1 62864U 25022L   25357.77255238  .00040261  00000+0  13639-2 0  9994
2 62864  53.1591 122.4743 0000943  75.0728 285.0378 15.30205749 50273
STARLINK-32841          
1 62865U 25022M   25358.07907649  .00039289  00000+0  13310-2 0  9993
2 62865  53.1606 120.8324 0000871  88.1245 271.9856 15.30216937 50318
STARLINK-32695          
1 62866U 25022N   25357.78932194  .00032630  00000+0  11086-2 0  9995
2 62866  53.1575 121.8648 0000860 107.6445 252.4650 15.30212992 50280
STARLINK-32846          
1 62867U 25022P   25358.06957155  .00033448  00000+0  11353-2 0  9997
2 62867  53.1612 120.7557 0000428 254.1523 105.9430 15.30231209 50320
STARLINK-32822          
1 62868U 25022Q   25356.77594387  .00043093  00000+0  14587-2 0  9997
2 62868  53.1591 126.9173 0000825  72.1267 287.9823 15.30198761 50123
STARLINK-32813          
1 62869U 25022R   25357.63981241  .00028135  00000+0  95844-3 0  9999
2 62869  53.1584 123.0679 0000888  84.3156 275.7946 15.30200807 50256
STARLINK-32861          
1 62870U 25022S   25357.72612259  .00032559  00000+0  11061-2 0  9994
2 62870  53.1580 122.1845 0001940  86.1024 274.0198 15.30213461 50276
STARLINK-32814          
1 62871U 25022T   25358.08435323  .00031622  00000+0  10749-2 0  9992
2 62871  53.1605 120.8671 0001066  84.7421 275.3701 15.30209871 50321
STARLINK-32849          
1 62872U 25022U   25357.38805024  .00026070  00000+0  88897-3 0  9995
2 62872  53.1587 124.3409 0001646 108.2601 251.8579 15.30209394 50215
STARLINK-32833          
1 62873U 25022V   25358.07064218  .00026150  00000+0  89203-3 0  9996
2 62873  53.1612 120.7810 0003270  85.1042 275.0332 15.30193559 50320
STARLINK-32793          
1 62874U 25022W   25357.76305658  .00025835  00000+0  88104-3 0  9996
2 62874  53.1600 122.4121 0001279 116.2853 243.8279 15.30212237 50277
STARLINK-32834          
1 62875U 25022X   25358.07273734  .00020830  00000+0  71344-3 0  9999
2 62875  53.1608 120.7902 0000454 124.8434 235.2609 15.30199277 50324
STARLINK-11371 [DTC]    
1 62879U 25024A   25358.15500142  .00248395  00000+0  18672-2 0  9992
2 62879  42.9988 277.0534 0003176 262.0032  98.0475 15.71026433 51588
STARLINK-11352 [DTC]    
1 62880U 25024B   25358.11783775  .00209614  00000+0  15928-2 0  9997
2 62880  43.0004 276.7526 0002523 261.2827  98.7755 15.70889846 51588
STARLINK-11382 [DTC]    
1 62881U 25024C   25358.16668980 -.00002272  00000+0 -14218-4 0  9999
2 62881  42.9999 276.7615 0001508 268.9762 247.4329 15.70832709  5971
STARLINK-11432 [DTC]    
1 62882U 25024D   25358.08611128  .00193814  00000+0  14769-2 0  9993
2 62882  42.9984 277.3919 0000908 239.6736 120.4042 15.70872892 51575
STARLINK-11419 [DTC]    
1 62883U 25024E   25358.13376354  .00217047  00000+0  16445-2 0  9997
2 62883  43.0021 276.8814 0003359 265.3216  94.7268 15.70933244 51583
STARLINK-11437 [DTC]    
1 62884U 25024F   25357.82646801  .00295664  00000+0  22194-2 0  9999
2 62884  42.9981 278.8826 0001896 249.2705 110.7959 15.70917967 51535
STARLINK-11442 [DTC]    
1 62885U 25024G   25358.10721799  .00299463  00000+0  22294-2 0  9994
2 62885  42.9986 276.6672 0003550 264.4714  95.5749 15.71101292 51583
STARLINK-11365 [DTC]    
1 62886U 25024H   25358.11253193  .00170040  00000+0  12999-2 0  9994
2 62886  42.9992 276.7096 0001589 283.1270  76.9420 15.70872395 51584
STARLINK-11436 [DTC]    
1 62887U 25024J   25358.12845633  .00226915  00000+0  17201-2 0  9996
2 62887  43.0012 276.8353 0002526 270.6174  89.4404 15.70893994 51582
STARLINK-11438 [DTC]    
1 62888U 25024K   25357.15969712  .00300986  00000+0  22640-2 0  9998
2 62888  43.0013 282.4646 0002250 244.0222 116.0414 15.70852524 51431
STARLINK-11391 [DTC]    
1 62889U 25024L   25358.12314792  .00192679  00000+0  14689-2 0  9991
2 62889  42.9996 276.7925 0001909 261.5442  98.5210 15.70865819 51589
STARLINK-11431 [DTC]    
1 62890U 25024M   25357.21187701  .00220707  00000+0  16755-2 0  9990
2 62890  42.9990 282.8840 0001833 253.1804 106.8863 15.70878203 51436
STARLINK-11435 [DTC]    
1 62891U 25024N   25357.77881264  .00301833  00000+0  22734-2 0  9991
2 62891  42.9992 279.3910 0001317 244.8298 115.2434 15.70818691 51522
STARLINK-32878          
1 62892U 25024P   25358.09775442  .00032715  00000+0  11928-2 0  9991
2 62892  43.0023  32.4018 0000955 295.4854  64.5899 15.27588077 50708
STARLINK-32892          
1 62893U 25024Q   25358.10161102  .00023022  00000+0  84349-3 0  9995
2 62893  43.0009  32.4235 0001021 289.6860  70.3881 15.27581032 50701
STARLINK-32909          
1 62894U 25024R   25358.10803815  .00028417  00000+0  10379-2 0  9994
2 62894  43.0022  32.4748 0002392 275.1081  84.9497 15.27586469 50706
STARLINK-32901          
1 62895U 25024S   25357.16434637  .00039363  00000+0  14321-2 0  9995
2 62895  43.0025  37.4262 0001364 241.3163 118.7552 15.27584254 50562
STARLINK-32890          
1 62896U 25024T   25358.11559796  .00028101  00000+0  10265-2 0  9997
2 62896  43.0007  31.6686 0001908 272.8802  87.1831 15.27590757 50713
STARLINK-32893          
1 62897U 25024U   25358.12716281  .00024282  00000+0  88892-3 0  9991
2 62897  42.9968  31.7566 0001063 286.7293  73.3442 15.27582631 50713
STARLINK-32902          
1 62898U 25024V   25358.12330602  .00023251  00000+0  85168-3 0  9999
2 62898  42.9993  31.7229 0001278 274.8766  85.1940 15.27583563 50718
STARLINK-32661          
1 62899U 25024W   25358.14900601  .00020803  00000+0  76338-3 0  9993
2 62899  43.0017  31.9168 0001356 265.5630  94.5067 15.27578748 50719
STARLINK-11552 [DTC]    
1 62907U 25027A   25357.53464008  .00304875  00000+0  22821-2 0  9995
2 62907  43.0003  86.8188 0001064 256.5357 103.5393 15.70956706 51218
STARLINK-11561 [DTC]    
1 62908U 25027B   25357.95318203  .00274955  00000+0  20698-2 0  9992
2 62908  42.9985  83.9226 0001300 299.5593  60.5145 15.70913291 51241
STARLINK-11567 [DTC]    
1 62909U 25027C   25357.61415062  .00281458  00000+0  21183-2 0  9993
2 62909  43.0009  86.5632 0002502 276.2139  83.8444 15.70897987 51180
STARLINK-11569 [DTC]    
1 62910U 25027D   25357.96380003  .00194670  00000+0  14778-2 0  9990
2 62910  43.0020  84.0073 0001759 299.2657  60.8035 15.70961224 51244
STARLINK-11537 [DTC]    
1 62911U 25027E   25357.52933137  .00224274  00000+0  17050-2 0  9995
2 62911  42.9996  86.7743 0000854 239.8953 120.1830 15.70833730 51212
STARLINK-11565 [DTC]    
1 62912U 25027F   25358.13331413  .00293756  00000+0  21923-2 0  9998
2 62912  42.9984  82.6830 0002943 320.4819  39.5834 15.71061586 51277
STARLINK-11564 [DTC]    
1 62913U 25027G   25357.60353880  .00322266  00000+0  24084-2 0  9992
2 62913  43.0005  86.4757 0001612 318.8442  41.2304 15.70943216 51189
STARLINK-11566 [DTC]    
1 62914U 25027H   25357.60884919  .00226324  00000+0  16998-2 0  9998
2 62914  43.0004  86.5171 0002173 308.3327  51.7345 15.71116776 51229
STARLINK-11555 [DTC]    
1 62915U 25027J   25358.11841850  .00256159  00000+0  19105-2 0  9995
2 62915  43.0009  83.4588 0003249 242.3628 117.6910 15.71189033 51304
STARLINK-11430 [DTC]    
1 62916U 25027K   25357.55587589  .00176963  00000+0  13487-2 0  9990
2 62916  42.9997  86.9859 0001323 247.9966 112.0761 15.70923879 51211
STARLINK-11560 [DTC]    
1 62917U 25027L   25357.52401887  .00224422  00000+0  16922-2 0  9995
2 62917  42.9998  86.7282 0001577 178.0425 182.0449 15.71028905 51178
STARLINK-11562 [DTC]    
1 62918U 25027M   25357.38623691  .00202762  00000+0  15417-2 0  9990
2 62918  42.9994  87.4100 0001118 276.0685  84.0056 15.70896890 51192
STARLINK-11457 [DTC]    
1 62919U 25027N   25358.13862449  .00327966  00000+0  24385-2 0  9999
2 62919  42.9986  82.7231 0003831 317.8237  42.2336 15.71045122 51279
STARLINK-32921          
1 62920U 25027P   25357.57854970  .00025304  00000+0  92562-3 0  9992
2 62920  42.9958 198.5722 0000906 268.9752  91.0996 15.27590008 49909
STARLINK-32917          
1 62921U 25027Q   25357.91963478  .00020725  00000+0  75986-3 0  9998
2 62921  43.0003 196.8310 0001345 266.5034  93.5663 15.27609692 49955
STARLINK-32916          
1 62922U 25027R   25357.90933719  .00016764  00000+0  61720-3 0  9992
2 62922  42.9994 196.7489 0001658 269.6050  90.4612 15.27585556 49950
STARLINK-32905          
1 62923U 25027S   25357.93118439  .00013424  00000+0  49661-3 0  9990
2 62923  42.9981 196.9215 0001450 269.0111  91.0574 15.27568179 49954
STARLINK-32871          
1 62924U 25027T   25357.98115148  .00026515  00000+0  96832-3 0  9997
2 62924  43.0004 196.4284 0001565 258.8663 101.2013 15.27622662 49960
STARLINK-32920          
1 62925U 25027U   25357.91190786  .00033536  00000+0  12225-2 0  9996
2 62925  42.9971 196.7670 0001110 284.8903  75.1826 15.27584966 49950
STARLINK-32922          
1 62926U 25027V   25357.99271410  .00036245  00000+0  13197-2 0  9998
2 62926  42.9985 196.5184 0001180 271.8174  88.2542 15.27592551 49967
STARLINK-32891          
1 62927U 25027W   25357.86836661  .00024071  00000+0  88154-3 0  9990
2 62927  42.9989 197.3083 0001803 263.0143  97.0504 15.27573520 50064
STARLINK-32728          
1 62948U 25029A   25358.00928493  .00027285  00000+0  92978-3 0  9996
2 62948  53.1581 221.6411 0001268  91.3610 268.7536 15.30206585 49801
STARLINK-32857          
1 62949U 25029B   25357.92814352  .00032018  00000+0  10880-2 0  9996
2 62949  53.1579 221.8539 0001514  86.4464 273.6710 15.30216448 49794
STARLINK-32850          
1 62950U 25029C   25358.03091644  .00014137  00000+0  48853-3 0  9996
2 62950  53.1589 223.9034 0001279  84.3909 275.7238 15.30198723 49747
STARLINK-32875          
1 62951U 25029D   25358.01983811  .00022783  00000+0  77881-3 0  9990
2 62951  53.1589 221.7116 0001626  61.6307 298.4857 15.30206815 49775
STARLINK-32865          
1 62952U 25029E   25358.02458661  .00029708  00000+0  10107-2 0  9993
2 62952  53.1601 223.8634 0000974  90.2461 269.8651 15.30213305 49746
